GLOBALSTAR M045         
1 25676U 99019A   25238.34323601 -.00000100  00000+0 -59721-4 0  9996
2 25676  51.9965 105.3094 0000962  46.0553 125.6187 12.27064955202000
GLOBALSTAR M019         
1 25677U 99019B   25238.44274101 -.00000064  00000+0  27425-3 0  9991
2 25677  51.9845 240.3362 0001221 100.9359  51.3025 12.13874651193674
GLOBALSTAR M044         
1 25678U 99019C   25238.48881733 -.00000061  00000+0  31132-3 0  9998
2 25678  51.9947 200.3627 0005818 175.8905 324.8184 11.90254817179692
GLOBALSTAR M042         
1 25679U 99019D   25238.42614669 -.00000071  00000+0  19644-3 0  9990
2 25679  51.9989 212.6673 0003118  80.2835  87.2682 12.22085912193848
GLOBALSTAR M025         
1 25770U 99031A   25238.63902712 -.00000083  00000+0 -48148-3 0  9993
2 25770  51.9859 356.0644 0001472 252.6325 120.5894 11.22562919489623
GLOBALSTAR M049         
1 25771U 99031B   25238.54651008 -.00000105  00000+0 -13704-2 0  9997
2 25771  51.9897  34.5771 0003625 121.0716 239.0437 11.12114920125259
GLOBALSTAR M047         
1 25772U 99031C   25238.53049795 -.00000081  00000+0 -32336-3 0  9997
2 25772  51.9858  24.8621 0016680  26.2152 333.9496 11.31929322479070
GLOBALSTAR M052         
1 25773U 99031D   25238.44678476 -.00000085  00000+0 -65060-3 0  9996
2 25773  51.9855 142.4904 0002518 305.5436 226.1919 11.15060459486342
